[{"OBJECT_NAME":"TIANYAN 02","OBJECT_ID":"2019-093D","EPOCH":"2026-03-09T23:02:03.462720","MEAN_MOTION":15.03854369,"ECCENTRICITY":0.0013821,"INCLINATION":97.7892,"RA_OF_ASC_NODE":162.9238,"ARG_OF_PERICENTER":3.6432,"MEAN_ANOMALY":356.4891,"EPHEMERIS_TYPE":0,"CLASSIFICATION_TYPE":"U","NORAD_CAT_ID":44882,"ELEMENT_SET_NO":999,"REV_AT_EPOCH":33769,"BSTAR":0.0006063204,"MEAN_MOTION_DOT":8.303e-5,"MEAN_MOTION_DDOT":0},{"OBJECT_NAME":"STARLINK-34876","OBJECT_ID":"2025-191X","EPOCH":"2026-03-09T15:01:24.415392","MEAN_MOTION":15.05648669,"ECCENTRICITY":0.0002783,"INCLINATION":97.6021,"RA_OF_ASC_NODE":301.5241,"ARG_OF_PERICENTER":61.0245,"MEAN_ANOMALY":299.126,"EPHEMERIS_TYPE":0,"CLASSIFICATION_TYPE":"U","NORAD_CAT_ID":65400,"ELEMENT_SET_NO":999,"REV_AT_EPOCH":3026,"BSTAR":0.00011956,"MEAN_MOTION_DOT":1.665e-5,"MEAN_MOTION_DDOT":0}]
